OBJECT_NAME,OBJECT_ID,EPOCH,MEAN_MOTION,ECCENTRICITY,INCLINATION,RA_OF_ASC_NODE,ARG_OF_PERICENTER,MEAN_ANOMALY,EPHEMERIS_TYPE,CLASSIFICATION_TYPE,NORAD_CAT_ID,ELEMENT_SET_NO,REV_AT_EPOCH,BSTAR,MEAN_MOTION_DOT,MEAN_MOTION_DDOT
PROBA-1,2001-049B,2026-06-14T05:11:09.252384,15.07487843,.0056167,97.9600,173.6448,131.6924,228.9129,0,U,26958,999,34317,.19745E-3,.3034E-4,0
CUTE-1 (CO-55),2003-031E,2026-06-14T00:23:46.396608,14.24333986,.0009316,98.6736,173.6152,187.2201,172.8845,0,U,27844,999,19122,.13536E-3,.269E-5,0
CUBESAT XI-IV (CO-57),2003-031J,2026-06-14T00:04:51.738240,14.23619332,.0008816,98.6766,173.3175,206.8109,153.2615,0,U,27848,999,19092,.11831E-3,.226E-5,0
APRIZESAT 4,2009-041D,2026-06-14T03:43:28.299360,14.83875858,.0042596,98.1412,240.4152,333.0800,26.8203,0,U,35684,999,91091,.77384E-4,.593E-5,0
APRIZESAT 3,2009-041F,2026-06-14T03:45:18.517248,14.96232350,.0062749,98.2055,318.2352,77.5021,283.3210,0,U,35686,999,91592,.13041E-3,.1462E-4,0
PROBA-2,2009-059B,2026-06-14T01:50:35.248704,14.54861248,.0012029,98.2449,348.4727,292.7839,67.2087,0,U,36037,999,88107,.51226E-4,.175E-5,0
APRIZESAT 5,2011-044E,2026-06-13T18:20:44.834784,14.81069411,.00526197,98.2454,97.7078,15.2822,344.9964,0,U,37792,999,79828,.14243748E-3,.1072E-4,0
APRIZESAT 6,2011-044F,2026-06-14T00:30:12.180384,14.76911661,.0044484,98.2368,75.4559,95.8552,275.6955,0,U,37793,999,79668,.10636E-3,.704E-5,0
PROBA-V,2013-021A,2026-06-13T21:15:55.221984,14.23596410,.00050074,98.3582,143.6556,131.1901,228.9711,0,U,39159,999,68064,.46796147E-4,.66E-6,0
APRIZESAT 7,2013-066A,2026-06-14T03:14:33.525600,14.91558175,.0034757,97.7709,118.3989,219.5806,140.2875,0,U,39416,999,68077,.10516E-3,.1008E-4,0
APRIZESAT 8,2013-066K,2026-06-14T02:45:09.296352,14.87647693,.0044524,97.8221,112.6254,297.0171,62.6504,0,U,39425,999,67921,.10511E-3,.916E-5,0
BUGSAT-1 (TITA),2014-033E,2026-06-14T04:44:00.693600,15.15559253,.0027771,98.0433,257.5702,188.8029,171.2718,0,U,40014,999,65538,.39129E-3,.742E-4,0
SAUDISAT 4,2014-033G,2026-06-14T05:03:31.540608,14.79541128,.0046225,97.7578,311.4485,83.3857,277.2614,0,U,40016,999,64563,.88582E-4,.623E-5,0
APRIZESAT 9,2014-033J,2026-06-13T22:47:28.164192,14.74210615,.0065455,97.9056,298.2274,209.6629,150.0862,0,U,40018,999,64308,.10025E-3,.632E-5,0
APRIZESAT 10,2014-033K,2026-06-14T01:34:12.180864,14.70880054,.0077436,97.9645,292.0945,283.9931,75.2675,0,U,40019,999,64179,.6906E-4,.388E-5,0
TECHDEMOSAT-1 (TDS-1),2014-037H,2026-06-13T23:37:50.733408,15.13251447,.0004558,98.3808,156.8801,280.6531,79.4184,0,U,40076,999,64774,.48891E-3,.8621E-4,0
TECHNOSAT,2017-042E,2026-06-14T02:58:57.309024,15.04940858,.0018803,97.4270,322.8986,103.8584,256.4737,0,U,42829,999,48624,.28376E-3,.3976E-4,0
FLYING LAPTOP,2017-042G,2026-06-14T04:27:42.768288,15.01127303,.0019513,97.4668,320.8343,131.5307,228.7595,0,U,42831,999,48600,.24429E-3,.3083E-4,0
HAWK-A,2018-099H,2026-06-14T03:10:18.133248,15.24611885,.0033205,97.3918,217.4076,297.2302,62.5553,0,U,43765,999,41263,.2631E-3,.6517E-4,0
HAWK-B,2018-099AN,2026-06-14T02:01:27.485760,15.22796119,.0030669,97.3967,216.7821,316.3592,43.5220,0,U,43794,999,41256,.27506E-3,.644E-4,0
HAWK-C,2018-099AT,2026-06-14T02:46:28.162272,15.28065252,.0038857,97.3896,218.2883,297.1702,62.5578,0,U,43799,999,41344,.27953E-3,.7746E-4,0
SALSAT,2020-068K,2026-06-14T00:08:22.352064,15.29759103,.0008281,97.8843,167.8766,321.5879,38.4769,0,U,46495,999,31487,.28632E-3,.8178E-4,0
HAWK-2C,2021-006CT,2026-06-14T02:06:15.878592,15.34630308,.0006338,97.2280,209.4591,196.7406,163.3629,0,U,47502,999,29902,.20564E-3,.6826E-4,0
HAWK-2A,2021-006CW,2026-06-14T02:09:53.845056,15.34645114,.0005748,97.2324,210.1377,200.0133,160.0886,0,U,47505,999,29902,.20395E-3,.6772E-4,0
HAWK-2B,2021-006CZ,2026-06-14T02:03:43.104384,15.34728701,.0006337,97.2193,208.4700,198.1903,161.9114,0,U,47508,999,29902,.22904E-3,.7637E-4,0
HAWK-3B,2021-059BE,2026-06-14T01:44:28.940352,15.69320945,.0003421,97.6653,1.4868,347.6488,12.4689,0,U,48931,999,27736,.38385E-3,.44836E-3,0
HAWK-3C,2021-059BX,2026-06-14T01:44:01.231872,15.69325966,.0003712,97.6780,7.1673,347.3269,12.7898,0,U,48948,999,27736,.37513E-3,.4382E-3,0
HAWK-3A,2021-059CG,2026-06-14T01:43:51.625056,15.69329354,.0003797,97.6719,4.3745,349.6884,10.4298,0,U,48957,999,27736,.37706E-3,.44055E-3,0
HAWK-5C,2022-057Y,2026-06-13T22:45:06.982272,15.51289516,.0005199,97.6586,324.4063,92.6716,267.5131,0,U,52754,999,22584,.33012E-3,.19291E-3,0
HAWK-5B,2022-057AA,2026-06-13T22:44:54.107808,15.51289845,.0005851,97.6594,322.7552,85.5710,274.6210,0,U,52756,999,22584,.3269E-3,.19104E-3,0
HAWK-5A,2022-057AB,2026-06-13T22:44:35.713248,15.51287534,.000578,97.6592,323.5865,88.6497,271.5416,0,U,52757,999,22584,.33376E-3,.19506E-3,0
