PROBA-1                 
1 26958U 01049B   26165.21607931  .00003034  00000+0  19745-3 0  9991
2 26958  97.9600 173.6448 0056167 131.6924 228.9129 15.07487843343175
CUTE-1 (CO-55)          
1 27844U 03031E   26165.01650922  .00000269  00000+0  13536-3 0  9994
2 27844  98.6736 173.6152 0009316 187.2201 172.8845 14.24333986191224
CUBESAT XI-IV (CO-57)   
1 27848U 03031J   26165.00337660  .00000226  00000+0  11831-3 0  9997
2 27848  98.6766 173.3175 0008816 206.8109 153.2615 14.23619332190927
APRIZESAT 4             
1 35684U 09041D   26165.15518865  .00000593  00000+0  77384-4 0  9998
2 35684  98.1412 240.4152 0042596 333.0800  26.8203 14.83875858910912
APRIZESAT 3             
1 35686U 09041F   26165.15646432  .00001462  00000+0  13041-3 0  9997
2 35686  98.2055 318.2352 0062749  77.5021 283.3210 14.96232350915923
PROBA-2                 
1 36037U 09059B   26165.07679686  .00000175  00000+0  51226-4 0  9993
2 36037  98.2449 348.4727 0012029 292.7839  67.2087 14.54861248881073
APRIZESAT 5             
1 37792U 11044E   26164.76440781  .00001072  00000+0  14244-3 0  9991
2 37792  98.2454  97.7078 0052619  15.2822 344.9964 14.81069411798281
APRIZESAT 6             
1 37793U 11044F   26165.02097431  .00000704  00000+0  10636-3 0  9994
2 37793  98.2368  75.4559 0044484  95.8552 275.6955 14.76911661796687
PROBA-V                 
1 39159U 13021A   26164.88605581  .00000066  00000+0  46796-4 0  9991
2 39159  98.3582 143.6556 0005007 131.1901 228.9711 14.23596410680641
APRIZESAT 7             
1 39416U 13066A   26165.13511025  .00001008  00000+0  10516-3 0  9991
2 39416  97.7709 118.3989 0034757 219.5806 140.2875 14.91558175680771
APRIZESAT 8             
1 39425U 13066K   26165.11469093  .00000916  00000+0  10511-3 0  9998
2 39425  97.8221 112.6254 0044524 297.0171  62.6504 14.87647693679214
BUGSAT-1 (TITA)         
1 40014U 14033E   26165.19723025  .00007420  00000+0  39129-3 0  9998
2 40014  98.0433 257.5702 0027771 188.8029 171.2718 15.15559253655381
SAUDISAT 4              
1 40016U 14033G   26165.21078172  .00000623  00000+0  88582-4 0  9995
2 40016  97.7578 311.4485 0046225  83.3857 277.2614 14.79541128645630
APRIZESAT 9             
1 40018U 14033J   26164.94963153  .00000632  00000+0  10025-3 0  9994
2 40018  97.9056 298.2274 0065455 209.6629 150.0862 14.74210615643088
APRIZESAT 10            
1 40019U 14033K   26165.06541876  .00000388  00000+0  69060-4 0  9995
2 40019  97.9645 292.0945 0077436 283.9931  75.2675 14.70880054641795
TECHDEMOSAT-1 (TDS-1)   
1 40076U 14037H   26164.98461497  .00008621  00000+0  48891-3 0  9998
2 40076  98.3808 156.8801 0004558 280.6531  79.4184 15.13251447647745
TECHNOSAT               
1 42829U 17042E   26165.12427441  .00003976  00000+0  28376-3 0  9997
2 42829  97.4270 322.8986 0018803 103.8584 256.4737 15.04940858486245
FLYING LAPTOP           
1 42831U 17042G   26165.18591167  .00003083  00000+0  24429-3 0  9997
2 42831  97.4668 320.8343 0019513 131.5307 228.7595 15.01127303486001
HAWK-A                  
1 43765U 18099H   26165.13215432  .00006517  00000+0  26310-3 0  9996
2 43765  97.3918 217.4076 0033205 297.2302  62.5553 15.24611885412632
HAWK-B                  
1 43794U 18099AN  26165.08434590  .00006440  00000+0  27506-3 0  9993
2 43794  97.3967 216.7821 0030669 316.3592  43.5220 15.22796119412567
HAWK-C                  
1 43799U 18099AT  26165.11560373  .00007746  00000+0  27953-3 0  9997
2 43799  97.3896 218.2883 0038857 297.1702  62.5578 15.28065252413442
SALSAT                  
1 46495U 20068K   26165.00581426  .00008178  00000+0  28632-3 0  9997
2 46495  97.8843 167.8766 0008281 321.5879  38.4769 15.29759103314876
HAWK-2C                 
1 47502U 21006CT  26165.08768378  .00006826  00000+0  20564-3 0  9995
2 47502  97.2280 209.4591 0006338 196.7406 163.3629 15.34630308299026
HAWK-2A                 
1 47505U 21006CW  26165.09020654  .00006772  00000+0  20395-3 0  9999
2 47505  97.2324 210.1377 0005748 200.0133 160.0886 15.34645114299029
HAWK-2B                 
1 47508U 21006CZ  26165.08591556  .00007637  00000+0  22904-3 0  9994
2 47508  97.2193 208.4700 0006337 198.1903 161.9114 15.34728701299021
HAWK-3B                 
1 48931U 21059BE  26165.07255718  .00044836  00000+0  38385-3 0  9991
2 48931  97.6653   1.4868 0003421 347.6488  12.4689 15.69320945277369
HAWK-3C                 
1 48948U 21059BX  26165.07223648  .00043820  00000+0  37513-3 0  9990
2 48948  97.6780   7.1673 0003712 347.3269  12.7898 15.69325966277365
HAWK-3A                 
1 48957U 21059CG  26165.07212529  .00044055  00000+0  37706-3 0  9991
2 48957  97.6719   4.3745 0003797 349.6884  10.4298 15.69329354277361
HAWK-5C                 
1 52754U 22057Y   26164.94799748  .00019291  00000+0  33012-3 0  9998
2 52754  97.6586 324.4063 0005199  92.6716 267.5131 15.51289516225842
HAWK-5B                 
1 52756U 22057AA  26164.94784847  .00019104  00000+0  32690-3 0  9998
2 52756  97.6594 322.7552 0005851  85.5710 274.6210 15.51289845225849
HAWK-5A                 
1 52757U 22057AB  26164.94763557  .00019506  00000+0  33376-3 0  9992
2 52757  97.6592 323.5865 0005780  88.6497 271.5416 15.51287534225848
